start=new Date('2021-11-08T00:00:00.000Z').valueOf();
sats=[{"TLE_LINE2":"2 47675  53.0559 319.1021 0001514  64.3341 295.7804 15.06402720 41633","MEAN_MOTION":"15.06402720","COUNTRY_CODE":"US","PERIAPSIS":"546.157","TIME_SYSTEM":"UTC","GP_ID":"189181823","ELEMENT_SET_NO":"999","NORAD_CAT_ID":"47675","RA_OF_ASC_NODE":"319.1021","OBJECT_NAME":"STARLINK-2078","FILE":"3207387","INCLINATION":"53.0559","MEAN_MOTION_DDOT":"0.0000000000000","CENTER_NAME":"EARTH","BSTAR":"0.00004114000000","EPOCH":"2021-11-07T10:31:47.071200","OBJECT_TYPE":"PAYLOAD","MEAN_ANOMALY":"295.7804","APOAPSIS":"548.254","PERIOD":"95.592","REV_AT_EPOCH":"4163","RCS_SIZE":"LARGE","MEAN_MOTION_DOT":"0.00000331","OBJECT_ID":"2021-012BH","LAUNCH_DATE":"2021-02-16","ARG_OF_PERICENTER":"64.3341","EPHEMERIS_TYPE":"0","REF_FRAME":"TEME","CLASSIFICATION_TYPE":"U","DECAY_DATE":null,"SEMIMAJOR_AXIS":"6925.340","MEAN_ELEMENT_THEORY":"SGP4","TLE_LINE1":"1 47675U 21012BH  21311.43873925  .00000331  00000-0  41140-4 0  9995","SITE":"AFETR","ECCENTRICITY":"0.00015140"},{"RCS_SIZE":"LARGE","MEAN_MOTION_DOT":"-0.00097158","OBJECT_ID":"2021-012BJ","PERIOD":"91.530","REV_AT_EPOCH":"367","OBJECT_TYPE":"PAYLOAD","APOAPSIS":"354.691","MEAN_ANOMALY":"142.4818","MEAN_MOTION_DDOT":"0.0000000000000","CENTER_NAME":"EARTH","EPOCH":"2021-11-08T00:00:02.000160","BSTAR":"-0.00069249000000","FILE":"3207836","OBJECT_NAME":"STARLINK-2083","INCLINATION":"53.0394","TIME_SYSTEM":"UTC","GP_ID":"189215924","ELEMENT_SET_NO":"999","NORAD_CAT_ID":"47676","RA_OF_ASC_NODE":"225.1566","MEAN_MOTION":"15.73259445","COUNTRY_CODE":"US","PERIAPSIS":"344.490","TLE_LINE2":"2 47676  53.0394 225.1566 0007581 286.7904 142.4818 15.73259445  3679","ECCENTRICITY":"0.00075810","SITE":"AFETR","TLE_LINE1":"1 47676U 21012BJ  21312.00002315 -.00097158  00000-0 -69249-3 0  9991","MEAN_ELEMENT_THEORY":"SGP4","DECAY_DATE":null,"SEMIMAJOR_AXIS":"6727.726","REF_FRAME":"TEME","CLASSIFICATION_TYPE":"U","LAUNCH_DATE":"2021-02-16","EPHEMERIS_TYPE":"0","ARG_OF_PERICENTER":"286.7904"},{"OBJECT_TYPE":"PAYLOAD","APOAPSIS":"548.222","MEAN_ANOMALY":"281.5414","EPOCH":"2021-11-07T13:24:18.670752","BSTAR":"0.00065328000000","MEAN_MOTION_DDOT":"0.0000000000000","CENTER_NAME":"EARTH","OBJECT_ID":"2021-012BK","MEAN_MOTION_DOT":"0.00009457","RCS_SIZE":"LARGE","REV_AT_EPOCH":"4136","PERIOD":"95.593","PERIAPSIS":"546.323","COUNTRY_CODE":"US","MEAN_MOTION":"15.06380705","TLE_LINE2":"2 47677  53.0552 338.5698 0001371  78.5729 281.5414 15.06380705 41369","INCLINATION":"53.0552","FILE":"3207836","OBJECT_NAME":"STARLINK-2090","RA_OF_ASC_NODE":"338.5698","NORAD_CAT_ID":"47677","ELEMENT_SET_NO":"999","GP_ID":"189216675","TIME_SYSTEM":"UTC","SITE":"AFETR","TLE_LINE1":"1 47677U 21012BK  21311.55854943  .00009457  00000-0  65328-3 0  9990","ECCENTRICITY":"0.00013710","CLASSIFICATION_TYPE":"U","REF_FRAME":"TEME","EPHEMERIS_TYPE":"0","ARG_OF_PERICENTER":"78.5729","LAUNCH_DATE":"2021-02-16","MEAN_ELEMENT_THEORY":"SGP4","SEMIMAJOR_AXIS":"6925.408","DECAY_DATE":null},{"MEAN_ANOMALY":"279.5312","OBJECT_TYPE":"PAYLOAD","APOAPSIS":"548.208","MEAN_MOTION_DDOT":"0.0000000000000","CENTER_NAME":"EARTH","EPOCH":"2021-11-07T18:52:02.184096","BSTAR":"0.00069952000000","MEAN_MOTION_DOT":"0.00010150","RCS_SIZE":"LARGE","OBJECT_ID":"2021-012BM","PERIOD":"95.593","REV_AT_EPOCH":"4141","COUNTRY_CODE":"US","MEAN_MOTION":"15.06390614","PERIAPSIS":"546.276","TLE_LINE2":"2 47679  53.0546 337.5579 0001395  80.5834 279.5312 15.06390614 41417","INCLINATION":"53.0546","FILE":"3207836","OBJECT_NAME":"STARLINK-2095","GP_ID":"189216920","ELEMENT_SET_NO":"999","TIME_SYSTEM":"UTC","RA_OF_ASC_NODE":"337.5579","NORAD_CAT_ID":"47679","SITE":"AFETR","TLE_LINE1":"1 47679U 21012BM  21311.78613639  .00010150  00000-0  69952-3 0  9991","ECCENTRICITY":"0.00013950","REF_FRAME":"TEME","CLASSIFICATION_TYPE":"U","LAUNCH_DATE":"2021-02-16","ARG_OF_PERICENTER":"80.5834","EPHEMERIS_TYPE":"0","MEAN_ELEMENT_THEORY":"SGP4","DECAY_DATE":null,"SEMIMAJOR_AXIS":"6925.377"},{"PERIOD":"95.593","REV_AT_EPOCH":"3937","RCS_SIZE":"LARGE","MEAN_MOTION_DOT":"-0.00001846","OBJECT_ID":"2021-017A","MEAN_MOTION_DDOT":"0.0000000000000","CENTER_NAME":"EARTH","EPOCH":"2021-11-07T12:58:25.508064","BSTAR":"-0.00010509000000","APOAPSIS":"548.266","OBJECT_TYPE":"PAYLOAD","MEAN_ANOMALY":"271.0096","TIME_SYSTEM":"UTC","ELEMENT_SET_NO":"999","GP_ID":"189181828","NORAD_CAT_ID":"47722","RA_OF_ASC_NODE":"103.6493","OBJECT_NAME":"STARLINK-2068","FILE":"3207387","INCLINATION":"53.0561","TLE_LINE2":"2 47722  53.0561 103.6493 0001443  89.1058 271.0096 15.06382616 39378","MEAN_MOTION":"15.06382616","COUNTRY_CODE":"US","PERIAPSIS":"546.268","ECCENTRICITY":"0.00014430","TLE_LINE1":"1 47722U 21017A   21311.54057301 -.00001846  00000-0 -10509-3 0  9995","SITE":"AFETR","DECAY_DATE":null,"SEMIMAJOR_AXIS":"6925.402","MEAN_ELEMENT_THEORY":"SGP4","LAUNCH_DATE":"2021-03-04","EPHEMERIS_TYPE":"0","ARG_OF_PERICENTER":"89.1058","REF_FRAME":"TEME","CLASSIFICATION_TYPE":"U"},{"SITE":"AFETR","TLE_LINE1":"1 47723U 21017B   21311.70415390 -.00003763  00000-0 -23396-3 0  9998","ECCENTRICITY":"0.00016830","CLASSIFICATION_TYPE":"U","REF_FRAME":"TEME","ARG_OF_PERICENTER":"57.5040","EPHEMERIS_TYPE":"0","LAUNCH_DATE":"2021-03-04","MEAN_ELEMENT_THEORY":"SGP4","SEMIMAJOR_AXIS":"6925.391","DECAY_DATE":null,"OBJECT_TYPE":"PAYLOAD","APOAPSIS":"548.421","MEAN_ANOMALY":"302.6112","EPOCH":"2021-11-07T16:53:58.896960","BSTAR":"-0.00023396000000","MEAN_MOTION_DDOT":"0.0000000000000","CENTER_NAME":"EARTH","OBJECT_ID":"2021-017B","MEAN_MOTION_DOT":"-0.00003763","RCS_SIZE":"LARGE","REV_AT_EPOCH":"4027","PERIOD":"95.593","PERIAPSIS":"546.090","COUNTRY_CODE":"US","MEAN_MOTION":"15.06386283","TLE_LINE2":"2 47723  53.0534  37.9047 0001683  57.5040 302.6112 15.06386283 40274","INCLINATION":"53.0534","FILE":"3207836","OBJECT_NAME":"STARLINK-2107","RA_OF_ASC_NODE":"37.9047","NORAD_CAT_ID":"47723","GP_ID":"189215929","ELEMENT_SET_NO":"999","TIME_SYSTEM":"UTC"},{"ECCENTRICITY":"0.00023280","SITE":"AFETR","TLE_LINE1":"1 47724U 21017C   21311.74103853  .00024331  00000-0  16532-2 0  9996","MEAN_ELEMENT_THEORY":"SGP4","SEMIMAJOR_AXIS":"6925.803","DECAY_DATE":null,"CLASSIFICATION_TYPE":"U","REF_FRAME":"TEME","ARG_OF_PERICENTER":"117.6931","EPHEMERIS_TYPE":"0","LAUNCH_DATE":"2021-03-04","OBJECT_ID":"2021-017C","MEAN_MOTION_DOT":"0.00024331","RCS_SIZE":"LARGE","REV_AT_EPOCH":"4024","PERIOD":"95.602","OBJECT_TYPE":"PAYLOAD","MEAN_ANOMALY":"242.4294","APOAPSIS":"549.280","EPOCH":"2021-11-07T17:47:05.728992","BSTAR":"0.00165320000000","MEAN_MOTION_DDOT":"0.0000000000000","CENTER_NAME":"EARTH","INCLINATION":"53.0426","FILE":"3207836","OBJECT_NAME":"STARLINK-2116","RA_OF_ASC_NODE":"37.7472","NORAD_CAT_ID":"47724","ELEMENT_SET_NO":"999","GP_ID":"189216680","TIME_SYSTEM":"UTC","PERIAPSIS":"546.056","COUNTRY_CODE":"US","MEAN_MOTION":"15.06251782","TLE_LINE2":"2 47724  53.0426  37.7472 0002328 117.6931 242.4294 15.06251782 40243"},{"SITE":"AFETR","TLE_LINE1":"1 47725U 21017D   21311.90779681 -.00001940  00000-0 -11140-3 0  9997","ECCENTRICITY":"0.00014370","CLASSIFICATION_TYPE":"U","REF_FRAME":"TEME","EPHEMERIS_TYPE":"0","ARG_OF_PERICENTER":"88.1707","LAUNCH_DATE":"2021-03-04","MEAN_ELEMENT_THEORY":"SGP4","SEMIMAJOR_AXIS":"6925.391","DECAY_DATE":null,"APOAPSIS":"548.251","OBJECT_TYPE":"PAYLOAD","MEAN_ANOMALY":"271.9447","BSTAR":"-0.00011140000000","EPOCH":"2021-11-07T21:47:13.644384","CENTER_NAME":"EARTH","MEAN_MOTION_DDOT":"0.0000000000000","OBJECT_ID":"2021-017D","MEAN_MOTION_DOT":"-0.00001940","RCS_SIZE":"LARGE","REV_AT_EPOCH":"3930","PERIOD":"95.593","PERIAPSIS":"546.261","COUNTRY_CODE":"US","MEAN_MOTION":"15.06386096","TLE_LINE2":"2 47725  53.0560 106.9977 0001437  88.1707 271.9447 15.06386096 39304","INCLINATION":"53.0560","FILE":"3207836","OBJECT_NAME":"STARLINK-2125","RA_OF_ASC_NODE":"106.9977","NORAD_CAT_ID":"47725","ELEMENT_SET_NO":"999","GP_ID":"189216925","TIME_SYSTEM":"UTC"},{"MEAN_ELEMENT_THEORY":"SGP4","SEMIMAJOR_AXIS":"6925.386","DECAY_DATE":null,"CLASSIFICATION_TYPE":"U","REF_FRAME":"TEME","ARG_OF_PERICENTER":"80.0652","EPHEMERIS_TYPE":"0","LAUNCH_DATE":"2021-03-04","ECCENTRICITY":"0.00015060","SITE":"AFETR","TLE_LINE1":"1 47726U 21017E   21311.62766394 -.00000609  00000-0 -21997-4 0  9997","INCLINATION":"53.0557","OBJECT_NAME":"STARLINK-2126","FILE":"3207836","RA_OF_ASC_NODE":"108.2518","NORAD_CAT_ID":"47726","GP_ID":"189215179","ELEMENT_SET_NO":"999","TIME_SYSTEM":"UTC","PERIAPSIS":"546.208","COUNTRY_CODE":"US","MEAN_MOTION":"15.06387716","TLE_LINE2":"2 47726  53.0557 108.2518 0001506  80.0652 280.0507 15.06387716 39256","OBJECT_ID":"2021-017E","MEAN_MOTION_DOT":"-0.00000609","RCS_SIZE":"MEDIUM","REV_AT_EPOCH":"3925","PERIOD":"95.593","APOAPSIS":"548.294","OBJECT_TYPE":"PAYLOAD","MEAN_ANOMALY":"280.0507","EPOCH":"2021-11-07T15:03:50.164416","BSTAR":"-0.00002199700000","MEAN_MOTION_DDOT":"0.0000000000000","CENTER_NAME":"EARTH"},{"REF_FRAME":"TEME","CLASSIFICATION_TYPE":"U","LAUNCH_DATE":"2021-03-04","ARG_OF_PERICENTER":"17.8737","EPHEMERIS_TYPE":"0","MEAN_ELEMENT_THEORY":"SGP4","DECAY_DATE":null,"SEMIMAJOR_AXIS":"6765.170","SITE":"AFETR","TLE_LINE1":"1 47727U 21017F   21311.65795552  .00078475  00000-0  94241-3 0  9994","ECCENTRICITY":"0.00025600","MEAN_MOTION":"15.60216030","COUNTRY_CODE":"US","PERIAPSIS":"385.303","TLE_LINE2":"2 47727  53.0539  33.9799 0002560  17.8737 342.2365 15.60216030 40339","OBJECT_NAME":"STARLINK-2129","FILE":"3207836","INCLINATION":"53.0539","TIME_SYSTEM":"UTC","GP_ID":"189215429","ELEMENT_SET_NO":"999","NORAD_CAT_ID":"47727","RA_OF_ASC_NODE":"33.9799","MEAN_ANOMALY":"342.2365","OBJECT_TYPE":"PAYLOAD","APOAPSIS":"388.766","CENTER_NAME":"EARTH","MEAN_MOTION_DDOT":"0.0000000000000","EPOCH":"2021-11-07T15:47:27.356928","BSTAR":"0.00094241000000","RCS_SIZE":"LARGE","MEAN_MOTION_DOT":"0.00078475","OBJECT_ID":"2021-017F","PERIOD":"92.295","REV_AT_EPOCH":"4033"}];
